[{"OBJECT_NAME":"STARLINK-4035","OBJECT_ID":"2022-053AL","EPOCH":"2026-03-09T12:48:49.519872","MEAN_MOTION":15.08843322,"ECCENTRICITY":0.00014308,"INCLINATION":53.2171,"RA_OF_ASC_NODE":144.8198,"ARG_OF_PERICENTER":81.5043,"MEAN_ANOMALY":278.6111,"EPHEMERIS_TYPE":0,"CLASSIFICATION_TYPE":"U","NORAD_CAT_ID":52690,"ELEMENT_SET_NO":999,"REV_AT_EPOCH":21109,"BSTAR":5.4925046e-5,"MEAN_MOTION_DOT":5.86e-6,"MEAN_MOTION_DDOT":0},{"OBJECT_NAME":"CZ-4C DEB","OBJECT_ID":"2018-031H","EPOCH":"2026-03-09T10:10:58.582560","MEAN_MOTION":15.14033759,"ECCENTRICITY":0.00199639,"INCLINATION":98.1663,"RA_OF_ASC_NODE":242.9335,"ARG_OF_PERICENTER":272.748,"MEAN_ANOMALY":87.1465,"EPHEMERIS_TYPE":0,"CLASSIFICATION_TYPE":"U","NORAD_CAT_ID":43266,"ELEMENT_SET_NO":999,"REV_AT_EPOCH":43166,"BSTAR":0.00079064643,"MEAN_MOTION_DOT":0.00014379,"MEAN_MOTION_DDOT":0}]
